[{"OBJECT_NAME":"TRANSPORTER-13 OBJECT BC","OBJECT_ID":"2025-052BC","EPOCH":"2026-03-09T15:51:01.832832","MEAN_MOTION":14.94345554,"ECCENTRICITY":0.00011495,"INCLINATION":97.6967,"RA_OF_ASC_NODE":322.0668,"ARG_OF_PERICENTER":20.7823,"MEAN_ANOMALY":339.3444,"EPHEMERIS_TYPE":0,"CLASSIFICATION_TYPE":"U","NORAD_CAT_ID":63260,"ELEMENT_SET_NO":999,"REV_AT_EPOCH":5376,"BSTAR":0.00025427428,"MEAN_MOTION_DOT":2.678e-5,"MEAN_MOTION_DDOT":0},{"OBJECT_NAME":"PEGASUS DEB","OBJECT_ID":"1994-029AGF","EPOCH":"2026-02-25T10:41:11.465376","MEAN_MOTION":14.30043747,"ECCENTRICITY":0.0298302,"INCLINATION":81.8186,"RA_OF_ASC_NODE":316.6615,"ARG_OF_PERICENTER":83.3795,"MEAN_ANOMALY":280.1245,"EPHEMERIS_TYPE":0,"CLASSIFICATION_TYPE":"U","NORAD_CAT_ID":39932,"ELEMENT_SET_NO":999,"REV_AT_EPOCH":60847,"BSTAR":0.00051483218,"MEAN_MOTION_DOT":2.184e-5,"MEAN_MOTION_DDOT":0}]
